start=new Date('2022-10-27T00:00:00.000Z').valueOf();
sats=[{"FILE":"3635100","COUNTRY_CODE":"US","ELEMENT_SET_NO":"999","MEAN_MOTION_DOT":"0.00009123","GP_ID":"216265687","EPHEMERIS_TYPE":"0","MEAN_MOTION_DDOT":"0.0000000000000","TLE_LINE1":"1 49442U 21104AL  22299.80491589  .00009123  00000-0  59042-3 0  9997","ECCENTRICITY":"0.00026240","CENTER_NAME":"EARTH","BSTAR":"0.00059042000000","REF_FRAME":"TEME","PERIOD":"95.437","INCLINATION":"53.2168","OBJECT_ID":"2021-104AL","NORAD_CAT_ID":"49442","EPOCH":"2022-10-26T19:19:04.732896","OBJECT_NAME":"STARLINK-3098","CLASSIFICATION_TYPE":"U","SITE":"AFETR","ARG_OF_PERICENTER":"31.6977","SEMIMAJOR_AXIS":"6917.852","TIME_SYSTEM":"UTC","RCS_SIZE":"LARGE","RA_OF_ASC_NODE":"330.2952","OBJECT_TYPE":"PAYLOAD","LAUNCH_DATE":"2021-11-13","REV_AT_EPOCH":"5324","MEAN_ANOMALY":"328.4173","PERIAPSIS":"537.902","APOAPSIS":"541.533","DECAY_DATE":null,"MEAN_MOTION":"15.08849200","MEAN_ELEMENT_THEORY":"SGP4","TLE_LINE2":"2 49442  53.2168 330.2952 0002624  31.6977 328.4173 15.08849200 53240"},{"SITE":"AFETR","CLASSIFICATION_TYPE":"U","ARG_OF_PERICENTER":"31.9517","SEMIMAJOR_AXIS":"6917.912","RCS_SIZE":"LARGE","RA_OF_ASC_NODE":"330.3750","OBJECT_TYPE":"PAYLOAD","TIME_SYSTEM":"UTC","LAUNCH_DATE":"2021-11-13","REV_AT_EPOCH":"5324","PERIAPSIS":"537.919","MEAN_ANOMALY":"328.1638","APOAPSIS":"541.635","DECAY_DATE":null,"MEAN_ELEMENT_THEORY":"SGP4","TLE_LINE2":"2 49443  53.2167 330.3750 0002686  31.9517 328.1638 15.08829650 53248","MEAN_MOTION":"15.08829650","FILE":"3635100","COUNTRY_CODE":"US","ELEMENT_SET_NO":"999","MEAN_MOTION_DOT":"0.00001733","GP_ID":"216265937","MEAN_MOTION_DDOT":"0.0000000000000","EPHEMERIS_TYPE":"0","ECCENTRICITY":"0.00026860","TLE_LINE1":"1 49443U 21104AM  22299.78652055  .00001733  00000-0  12698-3 0  9997","REF_FRAME":"TEME","BSTAR":"0.00012698000000","INCLINATION":"53.2167","PERIOD":"95.438","OBJECT_ID":"2021-104AM","CENTER_NAME":"EARTH","EPOCH":"2022-10-26T18:52:35.375520","OBJECT_NAME":"STARLINK-3136","NORAD_CAT_ID":"49443"},{"ELEMENT_SET_NO":"999","COUNTRY_CODE":"US","FILE":"3634846","CENTER_NAME":"EARTH","INCLINATION":"53.2169","PERIOD":"95.438","OBJECT_ID":"2021-104AN","BSTAR":"0.00006918100000","REF_FRAME":"TEME","NORAD_CAT_ID":"49444","OBJECT_NAME":"STARLINK-3126","EPOCH":"2022-10-26T12:52:14.120256","MEAN_MOTION_DDOT":"0.0000000000000","GP_ID":"216209652","EPHEMERIS_TYPE":"0","MEAN_MOTION_DOT":"0.00000812","TLE_LINE1":"1 49444U 21104AN  22299.53627454  .00000812  00000-0  69181-4 0  9993","ECCENTRICITY":"0.00027470","TIME_SYSTEM":"UTC","RCS_SIZE":"LARGE","RA_OF_ASC_NODE":"331.5026","OBJECT_TYPE":"PAYLOAD","REV_AT_EPOCH":"5320","LAUNCH_DATE":"2021-11-13","CLASSIFICATION_TYPE":"U","SITE":"AFETR","SEMIMAJOR_AXIS":"6917.918","ARG_OF_PERICENTER":"25.4209","APOAPSIS":"541.683","DECAY_DATE":null,"MEAN_MOTION":"15.08827675","TLE_LINE2":"2 49444  53.2169 331.5026 0002747  25.4209 334.6918 15.08827675 53208","MEAN_ELEMENT_THEORY":"SGP4","MEAN_ANOMALY":"334.6918","PERIAPSIS":"537.883"},{"OBJECT_NAME":"STARLINK-3122","EPOCH":"2022-10-26T14:47:29.605632","NORAD_CAT_ID":"49445","PERIOD":"95.437","OBJECT_ID":"2021-104AP","INCLINATION":"53.2166","REF_FRAME":"TEME","BSTAR":"0.00068929000000","CENTER_NAME":"EARTH","ECCENTRICITY":"0.00026360","TLE_LINE1":"1 49445U 21104AP  22299.61631488  .00010702  00000-0  68929-3 0  9992","GP_ID":"216266932","EPHEMERIS_TYPE":"0","MEAN_MOTION_DDOT":"0.0000000000000","MEAN_MOTION_DOT":"0.00010702","ELEMENT_SET_NO":"999","COUNTRY_CODE":"US","FILE":"3635100","TLE_LINE2":"2 49445  53.2166 341.1451 0002636  29.3278 330.7862 15.08848218 53077","MEAN_ELEMENT_THEORY":"SGP4","MEAN_MOTION":"15.08848218","APOAPSIS":"541.544","DECAY_DATE":null,"PERIAPSIS":"537.897","MEAN_ANOMALY":"330.7862","REV_AT_EPOCH":"5307","LAUNCH_DATE":"2021-11-13","RA_OF_ASC_NODE":"341.1451","RCS_SIZE":"LARGE","OBJECT_TYPE":"PAYLOAD","TIME_SYSTEM":"UTC","SEMIMAJOR_AXIS":"6917.855","ARG_OF_PERICENTER":"29.3278","SITE":"AFETR","CLASSIFICATION_TYPE":"U"},{"LAUNCH_DATE":"2021-11-13","REV_AT_EPOCH":"5318","TIME_SYSTEM":"UTC","RCS_SIZE":"LARGE","OBJECT_TYPE":"PAYLOAD","RA_OF_ASC_NODE":"332.1125","ARG_OF_PERICENTER":"40.9576","SEMIMAJOR_AXIS":"6917.926","CLASSIFICATION_TYPE":"U","SITE":"AFETR","MEAN_MOTION":"15.08824980","MEAN_ELEMENT_THEORY":"SGP4","TLE_LINE2":"2 49446  53.2173 332.1125 0001840  40.9576 319.1554 15.08824980 53181","APOAPSIS":"541.064","DECAY_DATE":null,"MEAN_ANOMALY":"319.1554","PERIAPSIS":"538.518","ELEMENT_SET_NO":"999","FILE":"3634846","COUNTRY_CODE":"US","NORAD_CAT_ID":"49446","EPOCH":"2022-10-26T09:36:10.927872","OBJECT_NAME":"STARLINK-3099","CENTER_NAME":"EARTH","BSTAR":"0.00005732200000","REF_FRAME":"TEME","PERIOD":"95.439","OBJECT_ID":"2021-104AQ","INCLINATION":"53.2173","TLE_LINE1":"1 49446U 21104AQ  22299.40012648  .00000624  00000-0  57322-4 0  9999","ECCENTRICITY":"0.00018400","MEAN_MOTION_DOT":"0.00000624","GP_ID":"216209153","MEAN_MOTION_DDOT":"0.0000000000000","EPHEMERIS_TYPE":"0"},{"LAUNCH_DATE":"2021-11-13","REV_AT_EPOCH":"5310","TIME_SYSTEM":"UTC","OBJECT_TYPE":"PAYLOAD","RCS_SIZE":"LARGE","RA_OF_ASC_NODE":"340.2807","ARG_OF_PERICENTER":"32.8325","SEMIMAJOR_AXIS":"6917.936","CLASSIFICATION_TYPE":"U","SITE":"AFETR","MEAN_MOTION":"15.08821820","MEAN_ELEMENT_THEORY":"SGP4","TLE_LINE2":"2 49447  53.2166 340.2807 0002595  32.8325 327.2827 15.08821820 53106","DECAY_DATE":null,"APOAPSIS":"541.596","MEAN_ANOMALY":"327.2827","PERIAPSIS":"538.006","ELEMENT_SET_NO":"999","FILE":"3635100","COUNTRY_CODE":"US","NORAD_CAT_ID":"49447","EPOCH":"2022-10-26T19:23:03.792192","OBJECT_NAME":"STARLINK-3115","CENTER_NAME":"EARTH","REF_FRAME":"TEME","BSTAR":"0.00020099000000","OBJECT_ID":"2021-104AR","PERIOD":"95.439","INCLINATION":"53.2166","TLE_LINE1":"1 49447U 21104AR  22299.80768278  .00002910  00000-0  20099-3 0  9991","ECCENTRICITY":"0.00025950","MEAN_MOTION_DOT":"0.00002910","GP_ID":"216265437","MEAN_MOTION_DDOT":"0.0000000000000","EPHEMERIS_TYPE":"0"},{"TIME_SYSTEM":"UTC","RCS_SIZE":"LARGE","OBJECT_TYPE":"PAYLOAD","RA_OF_ASC_NODE":"340.2297","LAUNCH_DATE":"2021-11-13","REV_AT_EPOCH":"5310","CLASSIFICATION_TYPE":"U","SITE":"AFETR","ARG_OF_PERICENTER":"21.2026","SEMIMAJOR_AXIS":"6917.945","APOAPSIS":"541.945","DECAY_DATE":null,"MEAN_MOTION":"15.08818957","MEAN_ELEMENT_THEORY":"SGP4","TLE_LINE2":"2 49448  53.2183 340.2297 0003086  21.2026 338.9094 15.08818957 53107","MEAN_ANOMALY":"338.9094","PERIAPSIS":"537.675","ELEMENT_SET_NO":"999","FILE":"3635100","COUNTRY_CODE":"US","CENTER_NAME":"EARTH","BSTAR":"0.00024881000000","REF_FRAME":"TEME","OBJECT_ID":"2021-104AS","PERIOD":"95.439","INCLINATION":"53.2183","NORAD_CAT_ID":"49448","OBJECT_NAME":"STARLINK-3097","EPOCH":"2022-10-26T19:38:57.818400","MEAN_MOTION_DOT":"0.00003671","GP_ID":"216266189","MEAN_MOTION_DDOT":"0.0000000000000","EPHEMERIS_TYPE":"0","TLE_LINE1":"1 49448U 21104AS  22299.81872475  .00003671  00000-0  24881-3 0  9996","ECCENTRICITY":"0.00030860"},{"GP_ID":"216209879","MEAN_MOTION_DDOT":"0.0000000000000","EPHEMERIS_TYPE":"0","MEAN_MOTION_DOT":"-0.00000187","ECCENTRICITY":"0.00026130","TLE_LINE1":"1 49449U 21104AT  22299.47280393 -.00000187  00000-0  63865-5 0  9998","OBJECT_ID":"2021-104AT","PERIOD":"95.438","INCLINATION":"53.2175","REF_FRAME":"TEME","BSTAR":"0.00000638650000","CENTER_NAME":"EARTH","EPOCH":"2022-10-26T11:20:50.259552","OBJECT_NAME":"STARLINK-3137","NORAD_CAT_ID":"49449","COUNTRY_CODE":"US","FILE":"3634846","ELEMENT_SET_NO":"999","PERIAPSIS":"537.976","MEAN_ANOMALY":"328.3252","DECAY_DATE":null,"APOAPSIS":"541.591","TLE_LINE2":"2 49449  53.2175 341.7870 0002613  31.7898 328.3252 15.08827427 53055","MEAN_ELEMENT_THEORY":"SGP4","MEAN_MOTION":"15.08827427","SITE":"AFETR","CLASSIFICATION_TYPE":"U","SEMIMAJOR_AXIS":"6917.919","ARG_OF_PERICENTER":"31.7898","OBJECT_TYPE":"PAYLOAD","RCS_SIZE":"LARGE","RA_OF_ASC_NODE":"341.7870","TIME_SYSTEM":"UTC","REV_AT_EPOCH":"5305","LAUNCH_DATE":"2021-11-13"},{"SEMIMAJOR_AXIS":"6917.855","ARG_OF_PERICENTER":"27.1147","SITE":"AFETR","CLASSIFICATION_TYPE":"U","REV_AT_EPOCH":"5333","LAUNCH_DATE":"2021-11-13","OBJECT_TYPE":"PAYLOAD","RCS_SIZE":"LARGE","RA_OF_ASC_NODE":"341.1470","TIME_SYSTEM":"UTC","PERIAPSIS":"537.802","MEAN_ANOMALY":"332.9990","TLE_LINE2":"2 49450  53.2161 341.1470 0002772  27.1147 332.9990 15.08848462 53337","MEAN_ELEMENT_THEORY":"SGP4","MEAN_MOTION":"15.08848462","DECAY_DATE":null,"APOAPSIS":"541.637","COUNTRY_CODE":"US","FILE":"3635100","ELEMENT_SET_NO":"999","ECCENTRICITY":"0.00027720","TLE_LINE1":"1 49450U 21104AU  22299.61264032  .00012730  00000-0  81625-3 0  9996","EPHEMERIS_TYPE":"0","GP_ID":"216265688","MEAN_MOTION_DDOT":"0.0000000000000","MEAN_MOTION_DOT":"0.00012730","EPOCH":"2022-10-26T14:42:12.123648","OBJECT_NAME":"STARLINK-3127","NORAD_CAT_ID":"49450","PERIOD":"95.437","OBJECT_ID":"2021-104AU","INCLINATION":"53.2161","REF_FRAME":"TEME","BSTAR":"0.00081625000000","CENTER_NAME":"EARTH"},{"ELEMENT_SET_NO":"999","FILE":"3634846","COUNTRY_CODE":"US","REF_FRAME":"TEME","BSTAR":"-0.00001743700000","INCLINATION":"53.2184","PERIOD":"95.438","OBJECT_ID":"2021-104AV","CENTER_NAME":"EARTH","OBJECT_NAME":"STARLINK-3125","EPOCH":"2022-10-26T12:50:53.861568","NORAD_CAT_ID":"49451","MEAN_MOTION_DOT":"-0.00000566","GP_ID":"216208902","EPHEMERIS_TYPE":"0","MEAN_MOTION_DDOT":"0.0000000000000","ECCENTRICITY":"0.00026220","TLE_LINE1":"1 49451U 21104AV  22299.53534562 -.00000566  00000-0 -17437-4 0  9993","RCS_SIZE":"LARGE","RA_OF_ASC_NODE":"341.5084","OBJECT_TYPE":"PAYLOAD","TIME_SYSTEM":"UTC","LAUNCH_DATE":"2021-11-13","REV_AT_EPOCH":"5306","SITE":"AFETR","CLASSIFICATION_TYPE":"U","ARG_OF_PERICENTER":"28.2534","SEMIMAJOR_AXIS":"6917.895","DECAY_DATE":null,"APOAPSIS":"541.574","MEAN_ELEMENT_THEORY":"SGP4","TLE_LINE2":"2 49451  53.2184 341.5084 0002622  28.2534 331.8600 15.08835206 53062","MEAN_MOTION":"15.08835206","PERIAPSIS":"537.946","MEAN_ANOMALY":"331.8600"}];
